[
    {
        "Altitude(m)": 568063.6912884329,
        "Argument of Periapsis(deg)": 0.033114955553567506,
        "Eccentricity": 0.0,
        "Inclination(deg)": 53.0,
        "Latitude(deg)": -43.72050491042299,
        "Longitude(deg)": 81.7944004961616,
        "Mean Anomaly(deg)": -120.45103566211208,
        "RAAN(deg)": 319.9507168426401,
        "Satellite Name": "Starlink Shell 1 1419",
        "Satellite Number": 1419,
        "Semi-Major Axis(m)": 6931778.249405717,
        "Time(s)": 950
    },
    {
        "Altitude(m)": 568206.3549014787,
        "Argument of Periapsis(deg)": 0.03346353403307874,
        "Eccentricity": 0.0,
        "Inclination(deg)": 53.0,
        "Latitude(deg)": -44.067009281275844,
        "Longitude(deg)": 82.47385661995921,
        "Mean Anomaly(deg)": -119.82420445855534,
        "RAAN(deg)": 319.9501980725626,
        "Satellite Name": "Starlink Shell 1 1419",
        "Satellite Number": 1419,
        "Semi-Major Axis(m)": 6931778.249405717,
        "Time(s)": 960
    },
    {
        "Altitude(m)": 568346.9809475775,
        "Argument of Periapsis(deg)": 0.03381211251258998,
        "Eccentricity": 0.0,
        "Inclination(deg)": 53.0,
        "Latitude(deg)": -44.40888761244596,
        "Longitude(deg)": 83.16169255814029,
        "Mean Anomaly(deg)": -119.19737325499855,
        "RAAN(deg)": 319.9496793024851,
        "Satellite Name": "Starlink Shell 1 1419",
        "Satellite Number": 1419,
        "Semi-Major Axis(m)": 6931778.249405717,
        "Time(s)": 970
    },
    {
        "Altitude(m)": 568485.5140829267,
        "Argument of Periapsis(deg)": 0.034160690992101214,
        "Eccentricity": 0.0,
        "Inclination(deg)": 53.0,
        "Latitude(deg)": -44.74603195443547,
        "Longitude(deg)": 83.85799127038821,
        "Mean Anomaly(deg)": -118.57054205144189,
        "RAAN(deg)": 319.94916053240763,
        "Satellite Name": "Starlink Shell 1 1419",
        "Satellite Number": 1419,
        "Semi-Major Axis(m)": 6931778.249405717,
        "Time(s)": 980
    },
    {
        "Altitude(m)": 568621.8997477675,
        "Argument of Periapsis(deg)": 0.034509269471612446,
        "Eccentricity": 0.0,
        "Inclination(deg)": 53.0,
        "Latitude(deg)": -45.07833271000626,
        "Longitude(deg)": 84.56283099877508,
        "Mean Anomaly(deg)": -117.94371084788528,
        "RAAN(deg)": 319.9486417623302,
        "Satellite Name": "Starlink Shell 1 1419",
        "Satellite Number": 1419,
        "Semi-Major Axis(m)": 6931778.249405717,
        "Time(s)": 990
    }
]